NORAD_CAT_ID,OBJECT_NAME,OBJECT_TYPE,EPOCH,MEAN_MOTION,ECCENTRICITY,INCLINATION,RA_OF_ASC_NODE,ARG_OF_PERICENTER,MEAN_ANOMALY,BSTAR,MEAN_MOTION_DOT,MEAN_MOTION_DDOT,TLE_LINE0,TLE_LINE1,TLE_LINE2,SEMIMAJOR_AXIS,PERIOD,APOGEE,PERIGEE,DECAYED
53836.0,STARLINK-4778,PAYLOAD,2023-01-17 12:15:29,15.08818636,0.0001365999999999,53.2172,44.2045,125.4379,234.6741,-0.00025335,-4.315e-05,0.0,0 STARLINK-4778,1 53836U 22114U   23017.51075644 -.00004315  00000-0 -25335-3 0  9996,2 53836  53.2172  44.2045 0001366 125.4379 234.6741 15.08818636 19242,6917.946,95.439,540.756,538.866,0.0
53836.0,STARLINK-4778,PAYLOAD,2023-01-17 18:37:01,15.08828412,7.55e-05,53.22,43.0173,75.9766,284.1311,-0.00011407,-2.102e-05,0.0,0 STARLINK-4778,1 53836U 22114U   23017.77570956 -.00002102  00000-0 -11407-3 0  9997,2 53836  53.2200  43.0173 0000755  75.9766 284.1311 15.08828412 19823,6917.916,95.438,540.303,539.259,0.0
53836.0,STARLINK-4778,PAYLOAD,2023-01-17 23:23:10,15.08832293,9.2e-05,53.2194,42.1192,50.4248,309.6825,8.965600000000001e-07,-2.73e-06,0.0,0 STARLINK-4778,1 53836U 22114U   23017.97442417 -.00000273  00000-0  89656-6 0  9999,2 53836  53.2194  42.1192 0000920  50.4248 309.6825 15.08832293 19312,6917.904,95.438,540.405,539.132,0.0
53836.0,STARLINK-4778,PAYLOAD,2023-01-18 08:55:28,15.08851804,9.78e-05,53.2175,40.3402,75.6807,284.4294,0.00020443,2.968e-05,0.0,0 STARLINK-4778,1 53836U 22114U   23018.37185406  .00002968  00000-0  20443-3 0  9994,2 53836  53.2175  40.3402 0000978  75.6807 284.4294 15.08851804 19373,6917.844,95.437,540.386,539.033,0.0
53836.0,STARLINK-4778,PAYLOAD,2023-01-18 10:30:51,15.08855139,9.86e-05,53.2174,40.0424,73.4691,286.641,0.00063027,9.761e-05,0.0,0 STARLINK-4778,1 53836U 22114U   23018.43809687  .00009761  00000-0  63027-3 0  9998,2 53836  53.2174  40.0424 0000986  73.4691 286.6410 15.08855139 19929,6917.834,95.437,540.381,539.0169999999999,0.0
53836.0,STARLINK-4778,PAYLOAD,2023-01-18 18:27:47,15.08854392,0.000101,53.2181,38.5564,69.2431,290.8669,0.00086233,0.00013468,0.0,0 STARLINK-4778,1 53836U 22114U   23018.76930157  .00013468  00000-0  86233-3 0  9994,2 53836  53.2181  38.5564 0001010  69.2431 290.8669 15.08854392 19437,6917.835999999999,95.437,540.4,539.003,0.0
53836.0,STARLINK-4778,PAYLOAD,2023-01-19 08:46:14,15.08877551,0.0001137999999999,53.2173,35.8803,75.6577,284.4541,0.00083564,0.0001305,0.0,0 STARLINK-4778,1 53836U 22114U   23019.36544869  .00013050  00000-0  83564-3 0  9993,2 53836  53.2173  35.8803 0001138  75.6577 284.4541 15.08877551 20068,6917.766,95.435,540.418,538.8430000000001,0.0
53836.0,STARLINK-4778,PAYLOAD,2023-01-19 18:18:33,15.08868999,0.0001087,53.2176,34.0938,93.0112,267.1004,0.00047845,7.341e-05,0.0,0 STARLINK-4778,1 53836U 22114U   23019.76288630  .00007341  00000-0  47845-3 0  9996,2 53836  53.2176  34.0938 0001087  93.0112 267.1004 15.08868999 19586,6917.792,95.436,540.409,538.905,0.0
53836.0,STARLINK-4778,PAYLOAD,2023-01-20 02:15:29,15.08842989,0.0001069,53.2176,32.6087,105.2194,254.8916,0.0010831,0.00016993,0.0,0 STARLINK-4778,1 53836U 22114U   23020.09408986  .00016993  00000-0  10831-2 0  9999,2 53836  53.2176  32.6087 0001069 105.2194 254.8916 15.08842989 19633,6917.871,95.437,540.476,538.997,0.0
53836.0,STARLINK-4778,PAYLOAD,2023-01-20 07:01:38,15.08842677,0.0001077,53.2175,31.7169,102.4867,257.6246,0.0016263999999999,0.00025693,0.0,0 STARLINK-4778,1 53836U 22114U   23020.29281008  .00025693  00000-0  16264-2 0  9998,2 53836  53.2175  31.7169 0001077 102.4867 257.6246 15.08842677 20204,6917.871999999999,95.437,540.482,538.992,0.0
53836.0,STARLINK-4778,PAYLOAD,2023-01-20 19:44:44,15.08845108,0.0001216,53.2172,29.3372,98.8614,261.2516,0.0015992,0.00025258,0.0,0 STARLINK-4778,1 53836U 22114U   23020.82273567  .00025258  00000-0  15992-2 0  9992,2 53836  53.2172  29.3372 0001216  98.8614 261.2516 15.08845108 19743,6917.865,95.437,540.571,538.889,0.0
53836.0,STARLINK-4778,PAYLOAD,2023-01-21 06:52:26,15.08844851,0.0001137999999999,53.218,27.2564,88.844,271.2683,0.0021471,0.00034053,0.0,0 STARLINK-4778,1 53836U 22114U   23021.28641988  .00034053  00000-0  21471-2 0  9991,2 53836  53.2180  27.2564 0001138  88.8440 271.2683 15.08844851 19819,6917.866,95.437,540.518,538.943,0.0
53836.0,STARLINK-4778,PAYLOAD,2023-01-22 06:43:13,15.08871149,0.0001247,53.2178,22.7958,79.389,280.7243,0.0017003,0.00026899,0.0,0 STARLINK-4778,1 53836U 22114U   23022.28001645  .00026899  00000-0  17003-2 0  9997,2 53836  53.2178  22.7958 0001247  79.3890 280.7243 15.08871149 19961,6917.785,95.436,540.513,538.788,0.0
53836.0,STARLINK-4778,PAYLOAD,2023-01-23 06:34:00,15.088384699999995,0.0001346,53.219,18.3356,101.2543,258.8601,0.00085107,0.00013282,0.0,0 STARLINK-4778,1 53836U 22114U   23023.27362123  .00013282  00000-0  85107-3 0  9991,2 53836  53.2190  18.3356 0001346 101.2543 258.8601 15.08838470 20111,6917.885,95.438,540.681,538.819,0.0
53836.0,STARLINK-4778,PAYLOAD,2023-01-24 04:49:25,15.08841635,0.0001408,53.2188,14.1723,96.3342,263.781,0.00054962,8.47e-05,0.0,0 STARLINK-4778,1 53836U 22114U   23024.20098451  .00008470  00000-0  54962-3 0  9993,2 53836  53.2188  14.1723 0001408  96.3342 263.7810 15.08841635 20259,6917.875,95.437,540.714,538.766,0.0
53836.0,STARLINK-4778,PAYLOAD,2023-01-24 15:57:07,15.08839385,0.0001698,53.2193,12.0907,94.9958,265.1228,0.00040344,6.138e-05,0.0,0 STARLINK-4778,1 53836U 22114U   23024.66466739  .00006138  00000-0  40344-3 0  9999,2 53836  53.2193  12.0907 0001698  94.9958 265.1228 15.08839385 20320,6917.882,95.438,540.922,538.573,0.0
53836.0,STARLINK-4778,PAYLOAD,2023-01-25 07:50:58,15.0885041,0.0001242999999999,53.2186,9.1167,102.8308,257.2823,0.00069318,0.00010764,0.0,0 STARLINK-4778,1 53836U 22114U   23025.32706522  .00010764  00000-0  69318-3 0  9992,2 53836  53.2186   9.1167 0001243 102.8308 257.2823 15.08850410 20966,6917.849,95.437,540.573,538.854,0.0
53836.0,STARLINK-4778,PAYLOAD,2023-01-25 15:47:54,15.08843568,0.0001385,53.2197,7.6295,85.4481,274.6669,0.00048686,7.47e-05,0.0,0 STARLINK-4778,1 53836U 22114U   23025.65826794  .00007470  00000-0  48686-3 0  9997,2 53836  53.2197   7.6295 0001385  85.4481 274.6669 15.08843568 20471,6917.869000000001,95.437,540.693,538.776,0.0
53836.0,STARLINK-4778,PAYLOAD,2023-01-26 07:41:45,15.08857113,0.0001239,53.2186,4.6536,73.4546,286.6582,0.00079208,0.00012346,0.0,0 STARLINK-4778,1 53836U 22114U   23026.32066479  .00012346  00000-0  79208-3 0  9990,2 53836  53.2186   4.6536 0001239  73.4546 286.6582 15.08857113 21111,6917.828,95.436,540.55,538.836,0.0
53836.0,STARLINK-4778,PAYLOAD,2023-01-26 23:35:36,15.088483600000002,0.0002015,53.2191,1.6803,163.8627,196.243,0.00021331,3.109e-05,0.0,0 STARLINK-4778,1 53836U 22114U   23026.98305880  .00003109  00000-0  21331-3 0  9995,2 53836  53.2191   1.6803 0002015 163.8627 196.2430 15.08848360 20670,6917.855,95.437,541.114,538.326,0.0
53836.0,STARLINK-4778,PAYLOAD,2023-01-27 07:32:32,15.08857389,0.0001214,53.2183,0.1959,95.6654,264.4476,0.00076981,0.00011991,0.0,0 STARLINK-4778,1 53836U 22114U   23027.31426244  .00011991  00000-0  76981-3 0  9990,2 53836  53.2183   0.1959 0001214  95.6654 264.4476 15.08857389 21264,6917.826999999999,95.436,540.5319999999999,538.852,0.0
53836.0,STARLINK-4778,PAYLOAD,2023-01-28 04:12:33,15.08840707,9.31e-05,53.2198,356.33,86.1923,273.9176,0.00032855,4.945e-05,0.0,0 STARLINK-4778,1 53836U 22114U   23028.17538709  .00004945  00000-0  32855-3 0  9998,2 53836  53.2198 356.3300 0000931  86.1923 273.9176 15.08840707 20857,6917.878000000001,95.438,540.387,539.099,0.0
53836.0,STARLINK-4778,PAYLOAD,2023-01-28 07:23:19,15.08843259,0.0001241,53.2192,355.7309,102.4482,257.6649,0.00050489,7.757e-05,0.0,0 STARLINK-4778,1 53836U 22114U   23028.30786668  .00007757  00000-0  50489-3 0  9999,2 53836  53.2192 355.7309 0001241 102.4482 257.6649 15.08843259 21412,6917.87,95.437,540.594,538.877,0.0
53836.0,STARLINK-4778,PAYLOAD,2023-01-29 07:14:06,15.08851854,0.0001214,53.2192,351.272,100.6075,259.5054,0.00042601,6.501e-05,0.0,0 STARLINK-4778,1 53836U 22114U   23029.30146385  .00006501  00000-0  42601-3 0  9999,2 53836  53.2192 351.2720 0001214 100.6075 259.5054 15.08851854 21026,6917.844,95.437,540.549,538.869,0.0
53836.0,STARLINK-4778,PAYLOAD,2023-01-30 07:04:53,15.08844518,0.0001205,53.2192,346.8147,78.669,281.4437,0.00016961,2.413e-05,0.0,0 STARLINK-4778,1 53836U 22114U   23030.29506650  .00002413  00000-0  16961-3 0  9992,2 53836  53.2192 346.8147 0001205  78.6690 281.4437 15.08844518 21170,6917.867,95.437,540.565,538.898,0.0
53836.0,STARLINK-4778,PAYLOAD,2023-01-30 21:23:22,15.08839656,0.0001223,53.2194,344.1388,79.134,280.979,4.3365e-05,4.02e-06,0.0,0 STARLINK-4778,1 53836U 22114U   23030.89122863  .00000402  00000-0  43365-4 0  9993,2 53836  53.2194 344.1388 0001223  79.1340 280.9790 15.08839656 21801,6917.881,95.438,540.592,538.9,0.0
53836.0,STARLINK-4778,PAYLOAD,2023-01-31 05:20:17,15.08852271,0.00012,53.2192,342.6532,90.2565,269.8564,0.00028052,4.181e-05,0.0,0 STARLINK-4778,1 53836U 22114U   23031.22242203  .00004181  00000-0  28052-3 0  9995,2 53836  53.2192 342.6532 0001200  90.2565 269.8564 15.08852271 21859,6917.843,95.437,540.538,538.878,0.0
53836.0,STARLINK-4778,PAYLOAD,2023-02-01 05:11:04,15.08847778,0.0001306,53.2197,338.1939,90.051,270.0632,0.00013739,1.9e-05,0.0,0 STARLINK-4778,1 53836U 22114U   23032.21602284  .00001900  00000-0  13739-3 0  9996,2 53836  53.2197 338.1939 0001306  90.0510 270.0632 15.08847778 21463,6917.857,95.437,540.625,538.818,0.0
53836.0,STARLINK-4778,PAYLOAD,2023-02-01 06:46:27,15.08852182,0.0001363,53.2199,337.8958,91.8569,268.2579,0.00026113,3.872e-05,0.0,0 STARLINK-4778,1 53836U 22114U   23032.28226100  .00003872  00000-0  26113-3 0  9992,2 53836  53.2199 337.8958 0001363  91.8569 268.2579 15.08852182 22014,6917.843,95.437,540.651,538.765,0.0
